ONEWEB-0156             
1 48052U 21025L   24130.48633827  .00000320  00000+0  84002-3 0  9991
2 48052  87.8896 113.2279 0001971  84.7412 275.3942 13.13471704152669
ONEWEB-0161             
1 48053U 21025M   24130.68789836 -.00000080  00000+0 -25434-3 0  9995
2 48053  87.8899 113.1939 0002228  86.4353 273.7031 13.13470543152632
ONEWEB-0158             
1 48054U 21025N   24130.87834505  .00000051  00000+0  10530-3 0  9998
2 48054  87.8897 113.1476 0001825  86.3193 273.8144 13.13469871152773
ONEWEB-0157             
1 48055U 21025P   24130.44507999 -.00000281  00000+0 -80350-3 0  9990
2 48055  87.8893 113.2495 0002103  81.1424 278.9943 13.13471150152655
ONEWEB-0162             
1 48056U 21025Q   24130.86565095  .00000303  00000+0  79538-3 0  9997
2 48056  87.8893 113.1620 0001960  84.1633 275.9720 13.13470086152668
ONEWEB-0155             
1 48057U 21025R   24130.50538345 -.00000106  00000+0 -32501-3 0  9999
2 48057  87.8895 113.2434 0002006  86.8866 273.2492 13.13470664152775
ONEWEB-0149             
1 48058U 21025S   24130.44982682 -.00000511  00000+0 -14355-2 0  9996
2 48058  87.8893 113.2512 0001910  79.7348 280.3996 13.13470089152577
ONEWEB-0148             
1 48059U 21025T   24130.87198641 -.00000664  00000+0 -18547-2 0  9994
2 48059  87.8913 113.1754 0002159  68.8129 291.3230 13.13464670152752
ONEWEB-0160             
1 48060U 21025U   24130.50697270 -.00000151  00000+0 -44881-3 0  9990
2 48060  87.8899 113.2442 0001271 110.7171 249.4095 13.13470503152654
ONEWEB-0163             
1 48061U 21025V   24130.49269299  .00000145  00000+0  36316-3 0  9990
2 48061  87.8896 113.2408 0002260  82.9158 277.2228 13.13470573152775
ONEWEB-0159             
1 48062U 21025W   24130.48157798  .00000312  00000+0  81883-3 0  9995
2 48062  87.8894 113.2270 0002089  80.1539 279.9826 13.13470378152690
ONEWEB-0164             
1 48063U 21025X   24130.46412551  .00000089  00000+0  20827-3 0  9997
2 48063  87.8895 113.2403 0002038  91.2000 268.9362 13.13471392152678
ONEWEB-0167             
1 48064U 21025Y   24130.49349045  .00000194  00000+0  49570-3 0  9991
2 48064  87.8897 113.2459 0002158  83.1977 276.9397 13.13468088152662
ONEWEB-0166             
1 48065U 21025Z   24130.66725238 -.00000298  00000+0 -84967-3 0  9999
2 48065  87.8892 113.1959 0001960  80.1728 279.9622 13.13470952152761
ONEWEB-0151             
1 48066U 21025AA  24130.51649825 -.00000314  00000+0 -89432-3 0  9992
2 48066  87.8893 113.2382 0002104  91.5420 268.5950 13.13470313152680
ONEWEB-0170             
1 48067U 21025AB  24130.67678135 -.00000223  00000+0 -64565-3 0  9995
2 48067  87.8896 113.2084 0002046 105.4809 254.6546 13.13471190152663
ONEWEB-0168             
1 48068U 21025AC  24130.51015187 -.00000277  00000+0 -79348-3 0  9995
2 48068  87.8899 113.2102 0002048  84.5052 275.6311 13.13470961152654
ONEWEB-0173             
1 48069U 21025AD  24130.50221235 -.00000116  00000+0 -35314-3 0  9995
2 48069  87.8900 113.2221 0002501  87.1818 272.9597 13.13470333152898
ONEWEB-0171             
1 48070U 21025AE  24130.46253945  .00000082  00000+0  18977-3 0  9991
2 48070  87.8898 113.2655 0002147  89.4651 270.6724 13.13471516152704
ONEWEB-0172             
1 48071U 21025AF  24130.44190503 -.00000298  00000+0 -84964-3 0  9990
2 48071  87.8898 113.2361 0002217  89.0726 271.0657 13.13470828153599
ONEWEB-0174             
1 48072U 21025AG  24130.50061851 -.00000028  00000+0 -11257-3 0  9997
2 48072  87.8899 113.2387 0001963  81.7153 278.4199 13.13467505152925
ONEWEB-0175             
1 48073U 21025AH  24130.68154882 -.00000230  00000+0 -66523-3 0  9995
2 48073  87.8892 113.1934 0002162  97.7930 262.3445 13.13470224152601
ONEWEB-0177             
1 48074U 21025AJ  24130.46571604  .00000165  00000+0  41555-3 0  9990
2 48074  87.8892 113.2437 0002384  80.7538 279.3860 13.13470990152769
ONEWEB-0178             
1 48075U 21025AK  24130.48332730  .00000324  00000+0  85175-3 0  9991
2 48075  87.8901 113.2554 0002194  84.0136 276.1243 13.13470498152810
ONEWEB-0108             
1 48076U 21025AL  24130.44349054 -.00000312  00000+0 -89013-3 0  9999
2 48076  87.8893 113.2459 0001751  83.9168 276.2161 13.13470741152738
ONEWEB-0169             
1 48077U 21025AM  24130.47523973  .00000306  00000+0  80300-3 0  9998
2 48077  87.8895 113.2485 0001740  83.0248 277.1079 13.13470867151396
ONEWEB-0176             
1 48210U 21031A   24130.38936439  .00000223  00000+0  56620-3 0  9995
2 48210  87.8945  82.6651 0002011  83.5601 276.5758 13.14504550147317
ONEWEB-0184             
1 48211U 21031B   24130.36239823 -.00000133  00000+0 -39303-3 0  9998
2 48211  87.8941  82.6553 0002654 104.0717 256.0708 13.14505717147285
ONEWEB-0179             
1 48212U 21031C   24130.56062361  .00000087  00000+0  19886-3 0  9992
2 48212  87.8948  82.6174 0002089  80.1031 280.0335 13.14504544147355
ONEWEB-0180             
1 48213U 21031D   24130.36558524 -.00000135  00000+0 -39878-3 0  9991
2 48213  87.8945  82.6552 0002239  80.0839 280.0544 13.14504045147218
ONEWEB-0218             
1 48214U 21031E   24130.38777904  .00000215  00000+0  54437-3 0  9994
2 48214  87.8943  82.6528 0002938  98.6693 261.4770 13.14501194147372
ONEWEB-0209             
1 48215U 21031F   24130.83339499  .00000011  00000+0 -34918-5 0  9997
2 48215  87.8946  82.5970 0002131  78.5727 281.5641 13.14503405147430
ONEWEB-0198             
1 48216U 21031G   24130.36082289 -.00000148  00000+0 -43395-3 0  9997
2 48216  87.8945  82.6964 0002474  86.9252 273.2161 13.14503285147486
ONEWEB-0189             
1 48217U 21031H   24130.37351084  .00000004  00000+0 -22434-4 0  9993
2 48217  87.8944  82.6694 0002564  85.8902 274.2520 13.14504479147224
ONEWEB-0196             
1 48218U 21031J   24130.42742389 -.00000112  00000+0 -33599-3 0  9996
2 48218  87.8948  82.6613 0002086  85.5422 274.5946 13.14504317147230
ONEWEB-0183             
1 48219U 21031K   24130.40204504  .00000264  00000+0  67690-3 0  9992
2 48219  87.8947  82.6836 0002045  78.5012 281.6348 13.14500948147320
ONEWEB-0185             
1 48220U 21031L   24130.35209409 -.00000213  00000+0 -60796-3 0  9993
2 48220  87.8946  82.6660 0002158  77.9053 282.2319 13.14504649147247
ONEWEB-0187             
1 48221U 21031M   24130.39808856  .00000289  00000+0  74377-3 0  9990
2 48221  87.8946  82.6891 0002074  78.2126 281.9236 13.14504566147260
ONEWEB-0192             
1 48222U 21031N   24130.37826960  .00000076  00000+0  16955-3 0  9997
2 48222  87.8946  82.6901 0002173  85.2966 274.8412 13.14504223147170
ONEWEB-0219             
1 48223U 21031P   24130.35763771 -.00000307  00000+0 -86128-3 0  9994
2 48223  87.8948  82.6685 0002203  78.9339 281.2038 13.14504696147371
ONEWEB-0202             
1 48224U 21031Q   24130.56698109  .00000050  00000+0  99826-4 0  9993
2 48224  87.8947  82.6466 0002821  90.7201 269.4251 13.14503230147383
ONEWEB-0204             
1 48225U 21031R   24130.37271326 -.00000087  00000+0 -26941-3 0  9990
2 48225  87.8943  82.6975 0001757  72.5299 287.6022 13.14504817147253
ONEWEB-0205             
1 48226U 21031S   24130.42425130 -.00000096  00000+0 -29461-3 0  9991
2 48226  87.8947  82.6581 0002222  79.0545 281.0835 13.14503911147271
ONEWEB-0206             
1 48227U 21031T   24130.39729590  .00000212  00000+0  53819-3 0  9997
2 48227  87.8943  82.6540 0002126  75.8759 284.2607 13.14504499147226
ONEWEB-0182             
1 48228U 21031U   24130.39254304  .00000177  00000+0  44289-3 0  9995
2 48228  87.8947  82.6806 0001884  77.9475 282.1866 13.14503274147431
ONEWEB-0186             
1 48229U 21031V   24130.55587350  .00000154  00000+0  38114-3 0  9999
2 48229  87.8946  82.6121 0002107  83.8328 276.3041 13.14504567147406
ONEWEB-0181             
1 48230U 21031W   24130.83815110  .00000106  00000+0  25120-3 0  9990
2 48230  87.8946  82.6253 0002172  85.1246 275.0132 13.14503893147307
ONEWEB-0188             
1 48231U 21031X   24130.41949081 -.00000001  00000+0 -36526-4 0  9999
2 48231  87.8947  82.7047 0002032  80.2708 279.8651 13.14504756147144
ONEWEB-0220             
1 48232U 21031Y   24130.83974046  .00000109  00000+0  25901-3 0  9996
2 48232  87.8939  82.5879 0002285  75.3284 284.8099 13.14503649147468
ONEWEB-0165             
1 48233U 21031Z   24130.56379789  .00000058  00000+0  12272-3 0  9990
2 48233  87.8949  82.6570 0002221  82.1765 277.9617 13.14500967147389
ONEWEB-0199             
1 48234U 21031AA  24130.39571347  .00000253  00000+0  64777-3 0  9990
2 48234  87.8945  82.6607 0002126  80.6731 279.4639 13.14503660147268
ONEWEB-0203             
1 48235U 21031AB  24130.38619597  .00000178  00000+0  44616-3 0  9996
2 48235  87.8946  82.6639 0002014  98.0438 262.0920 13.14504054147278
ONEWEB-0197             
1 48236U 21031AC  24130.36161390 -.00000160  00000+0 -46562-3 0  9993
2 48236  87.8947  82.6767 0001804  72.5486 287.5841 13.14504341147181
ONEWEB-0194             
1 48237U 21031AD  24130.56855192  .00000028  00000+0  41368-4 0  9997
2 48237  87.8949  82.6282 0001833  90.3880 269.7459 13.14503905147388
ONEWEB-0193             
1 48238U 21031AE  24130.35606470 -.00000157  00000+0 -45920-3 0  9990
2 48238  87.8946  82.6787 0002126  86.5502 273.5871 13.14503093147301
ONEWEB-0191             
1 48239U 21031AF  24130.36716673 -.00000084  00000+0 -26095-3 0  9990
2 48239  87.8944  82.6613 0002049  84.7092 275.4272 13.14504467147162
ONEWEB-0195             
1 48240U 21031AG  24130.87699909 -.00000006  00000+0 -49972-4 0  9994
2 48240  87.8947  82.5591 0002490  83.7192 276.4221 13.14503394147210
ONEWEB-0201             
1 48241U 21031AH  24130.56141906  .00000068  00000+0  14825-3 0  9994
2 48241  87.8948  82.6554 0002179  81.7856 278.3521 13.14500924147402
ONEWEB-0207             
1 48242U 21031AJ  24130.38858039  .00000225  00000+0  57187-3 0  9990
2 48242  87.8945  82.6563 0002048  75.0906 285.0451 13.14503463147292
